[{"OBJECT_NAME":"OBJECT AL","OBJECT_ID":"2023-085AL","EPOCH":"2026-03-09T22:26:04.970400","MEAN_MOTION":15.31857284,"ECCENTRICITY":0.000802,"INCLINATION":97.4839,"RA_OF_ASC_NODE":180.0127,"ARG_OF_PERICENTER":78.7242,"MEAN_ANOMALY":281.49,"EPHEMERIS_TYPE":0,"CLASSIFICATION_TYPE":"U","NORAD_CAT_ID":57038,"ELEMENT_SET_NO":999,"REV_AT_EPOCH":15154,"BSTAR":0.0006591637,"MEAN_MOTION_DOT":0.00020246,"MEAN_MOTION_DDOT":0},{"OBJECT_NAME":"STARLINK-31924","OBJECT_ID":"2024-100V","EPOCH":"2026-03-09T12:43:01.960320","MEAN_MOTION":15.27576037,"ECCENTRICITY":8.469e-5,"INCLINATION":43.0003,"RA_OF_ASC_NODE":126.195,"ARG_OF_PERICENTER":276.5216,"MEAN_ANOMALY":83.5539,"EPHEMERIS_TYPE":0,"CLASSIFICATION_TYPE":"U","NORAD_CAT_ID":59904,"ELEMENT_SET_NO":999,"REV_AT_EPOCH":10112,"BSTAR":-7.6999212e-5,"MEAN_MOTION_DOT":-2.38e-5,"MEAN_MOTION_DDOT":0}]
